[{"OBJECT_NAME":"SEEDS II (CO-66)","OBJECT_ID":"2008-021J","EPOCH":"2026-03-09T22:06:22.421376","MEAN_MOTION":15.29097236,"ECCENTRICITY":0.00014475,"INCLINATION":97.7519,"RA_OF_ASC_NODE":62.3611,"ARG_OF_PERICENTER":359.2618,"MEAN_ANOMALY":0.8619,"EPHEMERIS_TYPE":0,"CLASSIFICATION_TYPE":"U","NORAD_CAT_ID":32791,"ELEMENT_SET_NO":999,"REV_AT_EPOCH":97210,"BSTAR":0.00084213052,"MEAN_MOTION_DOT":0.00023758,"MEAN_MOTION_DDOT":0},{"OBJECT_NAME":"STARLINK-33662","OBJECT_ID":"2025-053W","EPOCH":"2026-03-09T11:39:41.068800","MEAN_MOTION":15.27593272,"ECCENTRICITY":0.00028474,"INCLINATION":43.0008,"RA_OF_ASC_NODE":242.8071,"ARG_OF_PERICENTER":285.1887,"MEAN_ANOMALY":74.865,"EPHEMERIS_TYPE":0,"CLASSIFICATION_TYPE":"U","NORAD_CAT_ID":63285,"ELEMENT_SET_NO":999,"REV_AT_EPOCH":5616,"BSTAR":0.0012706608,"MEAN_MOTION_DOT":0.00034886,"MEAN_MOTION_DDOT":0}]
